NORAD_CAT_ID,OBJECT_NAME,OBJECT_TYPE,EPOCH,MEAN_MOTION,ECCENTRICITY,INCLINATION,RA_OF_ASC_NODE,ARG_OF_PERICENTER,MEAN_ANOMALY,BSTAR,MEAN_MOTION_DOT,MEAN_MOTION_DDOT,TLE_LINE0,TLE_LINE1,TLE_LINE2,SEMIMAJOR_AXIS,PERIOD,APOGEE,PERIGEE,DECAYED
53899.0,STARLINK-5042,PAYLOAD,2024-01-03 01:23:08,15.08832472,0.0001518,53.217,300.0981,107.2339,252.882,0.00039293,5.97e-05,0.0,0 STARLINK-5042,1 53899U 22119P   24003.05774023  .00005970  00000-0  39293-3 0  9996,2 53899  53.2170 300.0981 0001518 107.2339 252.8820 15.08832472 71000,6917.903,95.438,540.819,538.718,0.0
53899.0,STARLINK-5042,PAYLOAD,2024-01-03 04:33:55,15.08815545,0.0001614,53.2172,299.5032,104.6019,255.5153,0.0010332,0.00016183,0.0,0 STARLINK-5042,1 53899U 22119P   24003.19023058  .00016183  00000-0  10332-2 0  9996,2 53899  53.2172 299.5032 0001614 104.6019 255.5153 15.08815545 71027,6917.955,95.439,540.937,538.704,0.0
53899.0,STARLINK-5042,PAYLOAD,2024-01-04 02:49:18,15.0884506,0.0001402,53.2162,295.345,92.4126,267.7026,8.3952e-05,1.049e-05,0.0,0 STARLINK-5042,1 53899U 22119P   24004.11757445  .00001049  00000-0  83952-4 0  9998,2 53899  53.2162 295.3450 0001402  92.4126 267.7026 15.08845060 71166,6917.865,95.437,540.7,538.76,0.0
53899.0,STARLINK-5042,PAYLOAD,2024-01-04 04:24:40,15.08862249,0.0001412,53.2173,295.0431,102.1233,257.9918,-0.0003353,-5.624e-05,0.0,0 STARLINK-5042,1 53899U 22119P   24004.18380312 -.00005624  00000-0 -33530-3 0  9991,2 53899  53.2173 295.0431 0001412 102.1233 257.9918 15.08862249 71173,6917.812,95.436,540.654,538.701,0.0
53899.0,STARLINK-5042,PAYLOAD,2024-01-04 18:43:09,15.08841686,0.0001537,53.2154,292.3723,90.8241,269.2927,0.00010182,1.333e-05,0.0,0 STARLINK-5042,1 53899U 22119P   24004.77997567  .00001333  00000-0  10182-3 0  9991,2 53899  53.2154 292.3723 0001537  90.8241 269.2927 15.08841686 71264,6917.875,95.437,540.804,538.677,0.0
53899.0,STARLINK-5042,PAYLOAD,2024-01-05 02:40:05,15.08845736,0.0001517,53.2167,290.8823,92.4536,267.663,9.7945e-05,1.271e-05,0.0,0 STARLINK-5042,1 53899U 22119P   24005.11117328  .00001271  00000-0  97945-4 0  9993,2 53899  53.2167 290.8823 0001517  92.4536 267.6630 15.08845736 71730,6917.863,95.437,540.777,538.678,0.0
53899.0,STARLINK-5042,PAYLOAD,2024-01-06 04:06:15,15.08842731,0.0001403,53.2169,286.1256,106.4375,253.6771,9.5622e-05,1.234e-05,0.0,0 STARLINK-5042,1 53899U 22119P   24006.17101639  .00001234  00000-0  95622-4 0  9997,2 53899  53.2169 286.1256 0001403 106.4375 253.6771 15.08842731 71475,6917.872,95.437,540.708,538.766,0.0
53899.0,STARLINK-5042,PAYLOAD,2024-01-06 21:35:30,15.08840262,0.0001522,53.2181,282.8512,97.9087,262.2078,-1.1228e-05,-4.67e-06,0.0,0 STARLINK-5042,1 53899U 22119P   24006.89966188 -.00000467  00000-0 -11228-4 0  9993,2 53899  53.2181 282.8512 0001522  97.9087 262.2078 15.08840262 72006,6917.88,95.438,540.797,538.692,0.0
53899.0,STARLINK-5042,PAYLOAD,2024-01-07 03:57:03,15.0884512,0.0001467,53.2184,281.6611,98.7035,261.4124,-2.4026e-05,-6.7e-06,0.0,0 STARLINK-5042,1 53899U 22119P   24007.16461842 -.00000670  00000-0 -24026-4 0  9997,2 53899  53.2184 281.6611 0001467  98.7035 261.4124 15.08845120 72041,6917.865,95.437,540.745,538.715,0.0
53899.0,STARLINK-5042,PAYLOAD,2024-01-07 21:26:17,15.08842171,0.0001521,53.2182,278.39,92.7786,267.338,8.5447e-05,1.072e-05,0.0,0 STARLINK-5042,1 53899U 22119P   24007.89325885  .00001072  00000-0  85447-4 0  9992,2 53899  53.2182 278.3900 0001521  92.7786 267.3380 15.08842171 72155,6917.874,95.437,540.791,538.687,0.0
53899.0,STARLINK-5042,PAYLOAD,2024-01-08 03:47:50,15.08843682,0.0001563,53.2179,277.2013,89.6829,270.4342,8.9829e-05,1.142e-05,0.0,0 STARLINK-5042,1 53899U 22119P   24008.15821765  .00001142  00000-0  89829-4 0  9996,2 53899  53.2179 277.2013 0001563  89.6829 270.4342 15.08843682 72198,6917.869,95.437,540.815,538.653,0.0
53899.0,STARLINK-5042,PAYLOAD,2024-01-08 22:52:28,15.08835492,0.0001564,53.2179,273.632,101.4418,258.675,3.5874e-05,2.83e-06,0.0,0 STARLINK-5042,1 53899U 22119P   24008.95310499  .00000283  00000-0  35874-4 0  9997,2 53899  53.2179 273.6320 0001564 101.4418 258.6750 15.08835492 72312,6917.894,95.438,540.841,538.677,0.0
53899.0,STARLINK-5042,PAYLOAD,2024-01-09 16:21:42,15.08840443,0.0001658,53.2173,270.3602,105.191,254.9265,-1.0131e-05,-4.49e-06,0.0,0 STARLINK-5042,1 53899U 22119P   24009.68174400 -.00000449  00000-0 -10131-4 0  9993,2 53899  53.2173 270.3602 0001658 105.1910 254.9265 15.08840443 72429,6917.879,95.438,540.891,538.597,0.0
53899.0,STARLINK-5042,PAYLOAD,2024-01-10 03:29:23,15.08850091,0.0001441,53.2173,268.2813,98.6615,261.454,4.3644e-05,4.07e-06,0.0,0 STARLINK-5042,1 53899U 22119P   24010.14541638  .00000407  00000-0  43644-4 0  9994,2 53899  53.2173 268.2813 0001441  98.6615 261.4540 15.08850091 72077,6917.85,95.437,540.711,538.718,0.0
53899.0,STARLINK-5042,PAYLOAD,2024-01-11 03:20:11,15.08836664,0.0001446,53.2181,263.8196,100.0704,260.0452,7.4722e-05,9.01e-06,0.0,0 STARLINK-5042,1 53899U 22119P   24011.13902742  .00000901  00000-0  74722-4 0  9991,2 53899  53.2181 263.8196 0001446 100.0704 260.0452 15.08836664 72227,6917.891,95.438,540.756,538.755,0.0
53899.0,STARLINK-5042,PAYLOAD,2024-01-11 22:24:49,15.08846576,0.000127,53.2165,260.2539,85.5875,274.5262,8.8515e-05,1.121e-05,0.0,0 STARLINK-5042,1 53899U 22119P   24011.93390273  .00001121  00000-0  88515-4 0  9999,2 53899  53.2165 260.2539 0001270  85.5875 274.5262 15.08846576 72763,6917.86,95.437,540.604,538.847,0.0
53899.0,STARLINK-5042,PAYLOAD,2024-01-12 01:35:35,15.0884923,0.0001367,53.2159,259.6592,84.1375,275.9773,0.00015257,2.142e-05,0.0,0 STARLINK-5042,1 53899U 22119P   24012.06638063  .00002142  00000-0  15257-3 0  9992,2 53899  53.2159 259.6592 0001367  84.1375 275.9773 15.08849230 72362,6917.852,95.437,540.663,538.772,0.0
53899.0,STARLINK-5042,PAYLOAD,2024-01-12 15:54:04,15.08833346,0.0001466,53.2155,256.9835,92.4345,267.6814,8.2363e-05,1.023e-05,0.0,0 STARLINK-5042,1 53899U 22119P   24012.66255163  .00001023  00000-0  82363-4 0  9994,2 53899  53.2155 256.9835 0001466  92.4345 267.6814 15.08833346 72452,6917.901,95.438,540.78,538.752,0.0
53899.0,STARLINK-5042,PAYLOAD,2024-01-12 22:15:37,15.08834248,0.000141,53.216,255.7938,89.8015,270.3138,2.4305e-05,9.9e-07,0.0,0 STARLINK-5042,1 53899U 22119P   24012.92751238  .00000099  00000-0  24305-4 0  9991,2 53899  53.2160 255.7938 0001410  89.8015 270.3138 15.08834248 72915,6917.898,95.438,540.738,538.788,0.0
53899.0,STARLINK-5042,PAYLOAD,2024-01-13 01:26:23,15.08837247,0.0001401,53.2157,255.199,92.8532,267.2621,8.3139e-05,1.035e-05,0.0,0 STARLINK-5042,1 53899U 22119P   24013.05999138  .00001035  00000-0  83139-4 0  9990,2 53899  53.2157 255.1990 0001401  92.8532 267.2621 15.08837247 72937,6917.889,95.438,540.723,538.785,0.0
53899.0,STARLINK-5042,PAYLOAD,2024-01-13 18:55:37,15.08845373,0.0001419,53.2156,251.9273,91.9316,268.1839,0.00012607,1.719e-05,0.0,0 STARLINK-5042,1 53899U 22119P   24013.78862962  .00001719  00000-0  12607-3 0  9994,2 53899  53.2156 251.9273 0001419  91.9316 268.1839 15.08845373 72629,6917.864,95.437,540.711,538.747,0.0
53899.0,STARLINK-5042,PAYLOAD,2024-01-13 22:06:23,15.08850179,0.0001421,53.2152,251.3324,94.4104,265.705,0.00021515,3.139e-05,0.0,0 STARLINK-5042,1 53899U 22119P   24013.92110712  .00003139  00000-0  21515-3 0  9995,2 53899  53.2152 251.3324 0001421  94.4104 265.7050 15.08850179 73069,6917.849,95.437,540.697,538.731,0.0
53899.0,STARLINK-5042,PAYLOAD,2024-01-14 21:57:10,15.08846642,0.0001361,53.2148,246.8714,101.1046,259.01,0.00018577,2.67e-05,0.0,0 STARLINK-5042,1 53899U 22119P   24014.91470741  .00002670  00000-0  18577-3 0  9999,2 53899  53.2148 246.8714 0001361 101.1046 259.0100 15.08846642 73219,6917.86,95.437,540.667,538.784,0.0
53899.0,STARLINK-5042,PAYLOAD,2024-01-15 18:37:11,15.08841066,0.0001396,53.2148,243.0057,97.4222,262.6929,-1.8351e-05,-5.8e-06,0.0,0 STARLINK-5042,1 53899U 22119P   24015.77582893 -.00000580  00000-0 -18351-4 0  9997,2 53899  53.2148 243.0057 0001396  97.4222 262.6929 15.08841066 72920,6917.877,95.437,540.708,538.776,0.0
53899.0,STARLINK-5042,PAYLOAD,2024-01-15 20:12:34,15.08842049,0.0001376,53.216,242.708,98.7709,261.3439,-5.8211e-06,-3.81e-06,0.0,0 STARLINK-5042,1 53899U 22119P   24015.84206990 -.00000381  00000-0 -58211-5 0  9995,2 53899  53.2160 242.7080 0001376  98.7709 261.3439 15.08842049 73350,6917.874,95.437,540.691,538.787,0.0
53899.0,STARLINK-5042,PAYLOAD,2024-01-15 21:47:57,15.08842667,0.0001389,53.2161,242.4104,96.7131,263.402,-7.4961e-06,-4.07e-06,0.0,0 STARLINK-5042,1 53899U 22119P   24015.90830916 -.00000407  00000-0 -74961-5 0  9992,2 53899  53.2161 242.4104 0001389  96.7131 263.4020 15.08842667 73362,6917.872,95.437,540.698,538.776,0.0
53899.0,STARLINK-5042,PAYLOAD,2024-01-16 20:03:22,15.08835035,0.0001509,53.217,238.2479,101.0293,259.0869,4.7448e-05,4.67e-06,0.0,0 STARLINK-5042,1 53899U 22119P   24016.83567287  .00000467  00000-0  47448-4 0  9996,2 53899  53.2170 238.2479 0001509 101.0293 259.0869 15.08835035 73085,6917.896,95.438,540.804,538.717,0.0
53899.0,STARLINK-5042,PAYLOAD,2024-01-16 21:38:45,15.08835973,0.0001534,53.2171,237.9508,101.8167,258.2998,5.2157e-05,5.42e-06,0.0,0 STARLINK-5042,1 53899U 22119P   24016.90191218  .00000542  00000-0  52157-4 0  9998,2 53899  53.2171 237.9508 0001534 101.8167 258.2998 15.08835973 73514,6917.893,95.438,540.819,538.696,0.0
53899.0,STARLINK-5042,PAYLOAD,2024-01-17 00:49:31,15.08836506,0.0001508,53.2169,237.3547,100.343,259.7732,5.733e-05,6.24e-06,0.0,0 STARLINK-5042,1 53899U 22119P   24017.03439188  .00000624  00000-0  57330-4 0  9993,2 53899  53.2169 237.3547 0001508 100.3430 259.7732 15.08836506 73533,6917.891,95.438,540.799,538.713,0.0
53899.0,STARLINK-5042,PAYLOAD,2024-01-17 19:54:09,15.08834475,0.0001459,53.2162,233.7851,98.9187,261.197,4.0938e-05,3.64e-06,0.0,0 STARLINK-5042,1 53899U 22119P   24017.82927720  .00000364  00000-0  40938-4 0  9991,2 53899  53.2162 233.7851 0001459  98.9187 261.1970 15.08834475 73657,6917.897,95.438,540.772,538.753,0.0
